{"fetched_at":"2026-03-29T16:36:15Z","count":15609,"tles":[{"name":"STARLINK-4594","line1":"1 53638U 22104BC  26087.85388204  .00000723  00000+0  63503-4 0  9997","line2":"2 53638  53.2165 137.7219 0001269  86.6674 273.4464 15.08841646199129","category":"Starlink"}]}